STARLINK-30425
1 57850U 23141L   24101.53751778  .00826004  00000+0  31134-1 0  9999
2 57850  53.0842 287.2848 0007386 123.5810 236.5893 15.23889121 33431
Total gap duration: 23:15:19.543848
STARLINK-30414
1 57859U 23141V   24101.58335648  .02549649  00000+0  10698+0 0  9996
2 57859  53.1119 287.7833 0001019  73.3596 200.9948 15.19145150 33424
Total gap duration: 23:17:45.424369
STARLINK-30285
1 57840U 23141A   24101.25001157  .02517256  00000+0  89625-1 0  9992
2 57840  53.1111 288.4185 0001405  83.0803 263.3309 15.24820418 33407
Total gap duration: 23:17:21.166967
STARLINK-30435
1 57842U 23141C   24101.49371644  .00004040  00000+0  18875-3 0  9992
2 57842  53.0781 287.7290 0000732 262.4146  97.6767 15.22013854 33429
Total gap duration: 23:15:59.555822
STARLINK-1421
1 45709U 20035BE  24101.58335648  .01150192  00000+0  22721-1 0  9998
2 45709  53.0544 287.4572 0001353  79.4169 322.8409 15.43910531213568
Total gap duration: 23:19:26.670691
STARLINK-31060
1 58782U 24011T   24101.25001157  .00038242  00000+0  14234-2 0  9991
2 58782  53.1608 287.0943 0000737  47.0870 310.9875 15.27146934 14517
Total gap duration: 23:18:03.011238
STARLINK-30423
1 57843U 23141D   24101.54837492 -.00003643  00000+0 -14328-3 0  9996
2 57843  53.0825 287.3579 0000661 305.2016  54.8918 15.22023220 33430
Total gap duration: 23:17:49.119983
STARLINK-30292
1 57844U 23141E   24101.52349135  .00002477  00000+0  13300-3 0  9998
2 57844  53.1105 287.9619 0001099  95.5862 264.5259 15.18715528 33429
Total gap duration: 23:14:26.487085
STARLINK-30272
1 57860U 23141W   24101.52310021  .00019520  00000+0  94057-3 0  9993
2 57860  53.1138 287.9558 0000714  80.9202 279.1874 15.18756090 33440
Total gap duration: 23:14:26.822871
STARLINK-30404
1 57853U 23141P   24101.54331277  .00040093  00000+0  19057-2 0  9998
2 57853  53.1136 288.0761 0002073  72.8786 287.2436 15.18842716 33428
Total gap duration: 23:13:43.950363
STARLINK-31103
1 58780U 24011R   24100.90337108  .00065509  00000+0  19493-2 0  9996
2 58780  53.1613 288.4991 0006692 222.6951 137.3532 15.34119244 14452
Total gap duration: 23:16:56.878907
STARLINK-30426
1 57848U 23141J   24101.21230041  .00024836  00000+0  10813-2 0  9991
2 57848  53.0748 288.8066 0003201 284.6344  75.4297 15.22100176 33382
Total gap duration: 23:13:52.793927
